ORBCOMM FM20            
1 25416U 98046D   25093.52801209  .00002048  00000+0  73163-3 0  9997
2 25416  44.9927 174.7912 0002699 246.3907 113.6657 14.37004455393527
ORBCOMM FM16            
1 25417U 98046E   25093.54128562  .00002821  00000+0  95795-3 0  9998
2 25417  44.9922 167.2608 0006327 269.3418  90.6706 14.38621867393506
ORBCOMM FM15            
1 25418U 98046F   25093.56862925  .00002560  00000+0  87993-3 0  9990
2 25418  44.9954 172.0547 0005845 268.5999  91.4180 14.38279357393505
ORBCOMM FM14            
1 25419U 98046G   25093.53531494  .00002684  00000+0  91401-3 0  9998
2 25419  44.9942 170.6595 0004932 261.2551  98.7739 14.38618212393462
ORBCOMM FM13            
1 25420U 98046H   25093.51641922  .00002285  00000+0  80377-3 0  9993
2 25420  44.9958 178.0138 0006888 255.2442 104.7642 14.37435598392496
ORBCOMM FM21            
1 25475U 98053A   25093.50656364  .00002314  00000+0  81834-3 0  9998
2 25475  45.0073 263.1077 0002033 193.0090 167.0705 14.37142487386509
ORBCOMM FM22            
1 25476U 98053B   25093.52679554  .00002813  00000+0  96561-3 0  9994
2 25476  45.0067 258.4517 0003920 199.6704 160.3994 14.38111905386529
ORBCOMM FM23            
1 25477U 98053C   25093.58574838  .00002776  00000+0  96910-3 0  9996
2 25477  45.0073 264.9553 0003011 194.3888 165.6875 14.37297710386664
